NORAD_CAT_ID,OBJECT_NAME,OBJECT_TYPE,EPOCH,MEAN_MOTION,ECCENTRICITY,INCLINATION,RA_OF_ASC_NODE,ARG_OF_PERICENTER,MEAN_ANOMALY,BSTAR,MEAN_MOTION_DOT,MEAN_MOTION_DDOT,TLE_LINE0,TLE_LINE1,TLE_LINE2,SEMIMAJOR_AXIS,PERIOD,APOGEE,PERIGEE,DECAYED
53415.0,STARLINK-4479,PAYLOAD,2022-09-27 22:00:01,15.499020800000002,0.0002389,53.2167,8.2881,35.1915,356.2454,-0.00026077,-0.00015234,0.0,0 STARLINK-4479,1 53415U 22097AD  22270.91668981 -.00015234  00000-0 -26077-3 0  9991,2 53415  53.2167   8.2881 0002389  35.1915 356.2454 15.49902080  1308,6795.149,92.909,418.638,415.391,0.0
53415.0,STARLINK-4479,PAYLOAD,2022-09-28 06:00:00,15.49894932,0.0002247,53.217,6.694,40.1864,52.1184,0.00077149,0.00043596,0.0,0 STARLINK-4479,1 53415U 22097AD  22271.25001157  .00043596  00000-0  77149-3 0  9991,2 53415  53.2170   6.6940 0002247  40.1864  52.1184 15.49894932  8138,6795.17,92.91,418.562,415.508,0.0
53415.0,STARLINK-4479,PAYLOAD,2022-09-28 14:00:01,15.49914684,0.0002471,53.2168,5.103,36.034,117.2162,0.00029773,0.000165,0.0,0 STARLINK-4479,1 53415U 22097AD  22271.58334491  .00016500  00000-0  29773-3 0  9992,2 53415  53.2168   5.1030 0002471  36.0340 117.2162 15.49914684  1309,6795.111999999999,92.908,418.656,415.298,0.0
53415.0,STARLINK-4479,PAYLOAD,2022-09-28 22:00:00,15.49946462,0.0002418,53.2168,3.509,36.1219,178.0721,-0.00044912,-0.00025916,0.0,0 STARLINK-4479,1 53415U 22097AD  22271.91667824 -.00025916  00000-0 -44912-3 0  9993,2 53415  53.2168   3.5090 0002418  36.1219 178.0721 15.49946462  1309,6795.02,92.906,418.528,415.242,0.0
53415.0,STARLINK-4479,PAYLOAD,2022-09-29 14:00:01,15.49924078,0.0002495,53.217,0.3228,34.6122,301.5519,-0.00068381,-0.00039127,0.0,0 STARLINK-4479,1 53415U 22097AD  22272.58334491 -.00039127  00000-0 -68381-3 0  9993,2 53415  53.2170   0.3228 0002495  34.6122 301.5519 15.49924078  8338,6795.085,92.908,418.645,415.255,0.0
53415.0,STARLINK-4479,PAYLOAD,2022-09-29 22:00:00,15.50061936,0.0002373,53.2171,358.7252,27.7438,9.3341,-0.0076392,-0.00414529,0.0,0 STARLINK-4479,1 53415U 22097AD  22272.91667824 -.00414529  00000-0 -76392-2 0  9992,2 53415  53.2171 358.7252 0002373  27.7438   9.3341 15.50061936  1307,6794.682,92.9,418.159,414.935,0.0
53415.0,STARLINK-4479,PAYLOAD,2022-09-30 06:00:02,15.49817597,0.0001848,53.2171,357.1269,331.1028,127.0013,-0.013362,-0.00693477,0.0,0 STARLINK-4479,1 53415U 22097AD  22273.25002315 -.00693477  00000-0 -13362-1 0  9996,2 53415  53.2171 357.1269 0001848 331.1028 127.0013 15.49817597  8447,6795.396,92.914,418.517,416.005,0.0
53415.0,STARLINK-4479,PAYLOAD,2022-09-30 14:00:01,15.49376805,0.0004319,53.2176,355.5368,282.3171,236.2316,-0.02245,-0.01129846,0.0,0 STARLINK-4479,1 53415U 22097AD  22273.58334491 -.01129846  00000-0 -22450-1 0  9998,2 53415  53.2176 355.5368 0004319 282.3171 236.2316 15.49376805  1305,6796.685,92.941,421.485,415.614,0.0
53415.0,STARLINK-4479,PAYLOAD,2022-09-30 16:00:00,15.49152219,0.0005098,53.2176,355.1385,276.5281,347.0714,-0.021868,-0.01095701,0.0,0 STARLINK-4479,1 53415U 22097AD  22273.66667824 -.01095701  00000-0 -21868-1 0  9990,2 53415  53.2176 355.1385 0005098 276.5281 347.0714 15.49152219  8505,6797.342,92.954,422.672,415.742,0.0
53415.0,STARLINK-4479,PAYLOAD,2022-09-30 22:00:00,15.48621491,0.00057,53.2173,353.9445,274.8758,303.443,-0.023392,-0.01162205,0.0,0 STARLINK-4479,1 53415U 22097AD  22273.91667824 -.01162205  00000-0 -23392-1 0  9996,2 53415  53.2173 353.9445 0005700 274.8758 303.4430 15.48621491  1309,6798.895,92.986,424.635,416.884,0.0
53415.0,STARLINK-4479,PAYLOAD,2022-10-01 06:00:00,15.47792322,0.0006683,53.2177,352.3529,268.4143,8.7927,-0.021874,-0.01049914,0.0,0 STARLINK-4479,1 53415U 22097AD  22274.25001157 -.01049914  00000-0 -21874-1 0  9999,2 53415  53.2177 352.3529 0006683 268.4143   8.7927 15.47792322  8592,6801.323,93.036,427.733,418.642,0.0
53415.0,STARLINK-4479,PAYLOAD,2022-10-01 14:00:01,15.47079545,0.00021,53.2175,350.7691,293.7305,41.3901,-0.023818,-0.0112307999999999,0.0,0 STARLINK-4479,1 53415U 22097AD  22274.58334491 -.01123080  00000-0 -23818-1 0  9992,2 53415  53.2175 350.7691 0002100 293.7305  41.3901 15.47079545  1305,6803.4119999999975,93.079,426.705,423.848,0.0
53415.0,STARLINK-4479,PAYLOAD,2022-10-01 22:00:00,15.46347152,0.0001200999999999,53.2172,349.1819,11.5992,20.539,-0.02541,-0.01163911,0.0,0 STARLINK-4479,1 53415U 22097AD  22274.91667824 -.01163911  00000-0 -25410-1 0  9995,2 53415  53.2172 349.1819 0001201  11.5992  20.5390 15.46347152  1307,6805.56,93.123,428.242,426.607,0.0
53415.0,STARLINK-4479,PAYLOAD,2022-10-02 06:00:00,15.45566472,0.0001341,53.2169,347.5969,50.7363,37.5294,-0.025428,-0.01136246,0.0,0 STARLINK-4479,1 53415U 22097AD  22275.25001157 -.01136246  00000-0 -25428-1 0  9994,2 53415  53.2169 347.5969 0001341  50.7363  37.5294 15.45566472  8757,6807.851,93.17,430.629,428.80300000000005,0.0
53415.0,STARLINK-4479,PAYLOAD,2022-10-02 14:00:01,15.4479384,0.0001319,53.2173,346.0172,62.1773,81.2968,-0.025669,-0.01118502,0.0,0 STARLINK-4479,1 53415U 22097AD  22275.58334491 -.01118502  00000-0 -25669-1 0  9992,2 53415  53.2173 346.0172 0001319  62.1773  81.2968 15.44793840  1307,6810.121,93.216,432.884,431.088,0.0
53415.0,STARLINK-4479,PAYLOAD,2022-10-02 22:00:00,15.43974253,0.0001315,53.2173,344.4356,61.9786,135.8172,-0.024327,-0.01023588,0.0,0 STARLINK-4479,1 53415U 22097AD  22275.91667824 -.01023588  00000-0 -24327-1 0  9997,2 53415  53.2173 344.4356 0001315  61.9786 135.8172 15.43974253  8858,6812.531,93.266,435.292,433.5,0.0
53415.0,STARLINK-4479,PAYLOAD,2022-10-03 14:00:01,15.42495647,0.0001333,53.2173,341.2821,62.1066,241.5101,-0.027016,-0.01091016,0.0,0 STARLINK-4479,1 53415U 22097AD  22276.58334491 -.01091016  00000-0 -27016-1 0  9991,2 53415  53.2173 341.2821 0001333  62.1066 241.5101 15.42495647  8956,6816.884,93.355,439.657,437.84,0.0
53415.0,STARLINK-4479,PAYLOAD,2022-10-03 22:00:00,15.41721716,0.0001203,53.2174,339.7046,57.3091,297.8694,-0.027219,-0.01072502,0.0,0 STARLINK-4479,1 53415U 22097AD  22276.91667824 -.01072502  00000-0 -27219-1 0  9991,2 53415  53.2174 339.7046 0001203  57.3091 297.8694 15.41721716  1309,6819.165,93.402,441.85,440.209,0.0
53415.0,STARLINK-4479,PAYLOAD,2022-10-04 14:00:01,15.40206069,0.0001460999999999,53.2176,336.5634,52.2731,43.2683,-0.028727,-0.01075794,0.0,0 STARLINK-4479,1 53415U 22097AD  22277.58334491 -.01075794  00000-0 -28727-1 0  9997,2 53415  53.2176 336.5634 0001461  52.2731  43.2683 15.40206069  1309,6823.638000000001,93.494,446.5,444.506,0.0
53415.0,STARLINK-4479,PAYLOAD,2022-10-04 16:00:00,15.40009242,0.0001476,53.2173,336.17,58.0148,139.8194,-0.02861,-0.01065336,0.0,0 STARLINK-4479,1 53415U 22097AD  22277.66667824 -.01065336  00000-0 -28610-1 0  9997,2 53415  53.2173 336.1700 0001476  58.0148 139.8194 15.40009242  9129,6824.219,93.506,447.091,445.077,0.0
53415.0,STARLINK-4479,PAYLOAD,2022-10-04 22:00:00,15.39441203,0.0001423,53.2175,334.991,56.6202,87.74,-0.0292389999999999,-0.01068195,0.0,0 STARLINK-4479,1 53415U 22097AD  22277.91667824 -.01068195  00000-0 -29239-1 0  9999,2 53415  53.2175 334.9910 0001423  56.6202  87.7400 15.39441203  1305,6825.898,93.54,448.734,446.791,0.0
53415.0,STARLINK-4479,PAYLOAD,2022-10-05 14:00:01,15.37919654,0.000144,53.2176,331.8594,59.6666,179.6481,-0.030588,-0.0106333,0.0,0 STARLINK-4479,1 53415U 22097AD  22278.58335648 -.01063330  00000-0 -30588-1 0  9994,2 53415  53.2176 331.8594 0001440  59.6666 179.6481 15.37919654  9267,6830.399,93.633,453.24800000000016,451.28,0.0
53415.0,STARLINK-4479,PAYLOAD,2022-10-05 22:00:00,15.37162513,0.0001353,53.2176,330.2939,56.1679,229.1595,-0.031501,-0.01067903,0.0,0 STARLINK-4479,1 53415U 22097AD  22278.91667824 -.01067903  00000-0 -31501-1 0  9991,2 53415  53.2176 330.2939 0001353  56.1679 229.1595 15.37162513  1300,6832.642,93.679,455.431,453.582,0.0
53415.0,STARLINK-4479,PAYLOAD,2022-10-06 06:00:00,15.36404588,0.0001325,53.2178,328.7319,53.9925,276.4975,-0.032344,-0.01069645,0.0,0 STARLINK-4479,1 53415U 22097AD  22279.25001157 -.01069645  00000-0 -32344-1 0  9991,2 53415  53.2178 328.7319 0001325  53.9925 276.4975 15.36404588  9365,6834.889,93.725,457.659,455.848,0.0
53415.0,STARLINK-4479,PAYLOAD,2022-10-06 14:00:01,15.35647952,0.0001439,53.2174,327.1739,47.5171,327.2211,-0.033264,-0.01073196,0.0,0 STARLINK-4479,1 53415U 22097AD  22279.58334491 -.01073196  00000-0 -33264-1 0  9995,2 53415  53.2174 327.1739 0001439  47.5171 327.2211 15.35647952  1305,6837.134,93.771,459.982,458.015,0.0
53415.0,STARLINK-4479,PAYLOAD,2022-10-06 22:42:55,15.34816691,0.0001579,53.2175,325.4739,48.4239,174.3598,-0.033968,-0.01067521,0.0,0 STARLINK-4479,1 53415U 22097AD  22279.94646991 -.01067521  00000-0 -33968-1 0  9992,2 53415  53.2175 325.4739 0001579  48.4239 174.3598 15.34816691  1303,6839.602,93.822,462.547,460.387,0.0
53415.0,STARLINK-4479,PAYLOAD,2022-10-07 06:00:00,15.34131722,0.0001571999999999,53.2173,324.057,44.4825,56.0198,-0.035088,-0.01077881,0.0,0 STARLINK-4479,1 53415U 22097AD  22280.25001157 -.01077881  00000-0 -35088-1 0  9992,2 53415  53.2173 324.0570 0001572  44.4825  56.0198 15.34131722  9528,6841.638000000001,93.864,464.578,462.427,0.0
53415.0,STARLINK-4479,PAYLOAD,2022-10-07 14:00:01,15.33364357,0.0001581,53.2172,322.5039,49.9226,92.0947,-0.03549,-0.01065025,0.0,0 STARLINK-4479,1 53415U 22097AD  22280.58334491 -.01065025  00000-0 -35490-1 0  9992,2 53415  53.2172 322.5039 0001581  49.9226  92.0947 15.33364357  1306,6843.92,93.911,466.867,464.703,0.0
53415.0,STARLINK-4479,PAYLOAD,2022-10-07 22:00:00,15.32603932,0.000152,53.2175,320.9479,53.7614,128.8587,-0.036322,-0.01064092,0.0,0 STARLINK-4479,1 53415U 22097AD  22280.91667824 -.01064092  00000-0 -36322-1 0  9996,2 53415  53.2175 320.9479 0001520  53.7614 128.8587 15.32603932  1308,6846.184,93.958,469.089,467.008,0.0
